NORAD_CAT_ID,OBJECT_NAME,OBJECT_TYPE,EPOCH,MEAN_MOTION,ECCENTRICITY,INCLINATION,RA_OF_ASC_NODE,ARG_OF_PERICENTER,MEAN_ANOMALY,BSTAR,MEAN_MOTION_DOT,MEAN_MOTION_DDOT,TLE_LINE0,TLE_LINE1,TLE_LINE2,SEMIMAJOR_AXIS,PERIOD,APOGEE,PERIGEE,DECAYED
51988.0,STARLINK-3640,PAYLOAD,2022-05-12 14:00:01,15.1825323,0.000154,53.2175,191.1144,46.6901,327.438,-0.035721,-0.00692141,0.0,0 STARLINK-3640,1 51988U 22025AJ  22132.58334491 -.00692141  00000-0 -35721-1 0  9993,2 51988  53.2175 191.1144 0001540  46.6901 327.4380 15.18253230  1304,6889.257,94.846,512.183,510.061,0.0
51988.0,STARLINK-3640,PAYLOAD,2022-05-12 22:00:00,15.17766193,0.0001389,53.2176,189.5986,53.6765,343.0604,-0.036363,-0.00694538,0.0,0 STARLINK-3640,1 51988U 22025AJ  22132.91667824 -.00694538  00000-0 -36363-1 0  9994,2 51988  53.2176 189.5986 0001389  53.6765 343.0604 15.17766193  1306,6890.73,94.876,513.553,511.638,0.0
51988.0,STARLINK-3640,PAYLOAD,2022-05-13 04:00:00,15.17399194,0.0001501999999999,53.2177,188.4635,53.9357,269.3723,-0.036597,-0.00691839,0.0,0 STARLINK-3640,1 51988U 22025AJ  22133.16667824 -.00691839  00000-0 -36597-1 0  9992,2 51988  53.2177 188.4635 0001502  53.9357 269.3723 15.17399194 11343,6891.840999999999,94.899,514.742,512.6709999999998,0.0
51988.0,STARLINK-3640,PAYLOAD,2022-05-13 14:00:01,15.16786896,0.0001539,53.2175,186.5756,49.7065,30.4865,-0.037131,-0.00689813,0.0,0 STARLINK-3640,1 51988U 22025AJ  22133.58334491 -.00689813  00000-0 -37131-1 0  9993,2 51988  53.2175 186.5756 0001539  49.7065  30.4865 15.16786896  1300,6893.696,94.938,516.622,514.5,0.0
51988.0,STARLINK-3640,PAYLOAD,2022-05-13 22:00:00,15.1630033,0.000153,53.2176,185.0632,49.7345,51.3069,-0.037813,-0.00692551,0.0,0 STARLINK-3640,1 51988U 22025AJ  22133.91667824 -.00692551  00000-0 -37813-1 0  9999,2 51988  53.2176 185.0632 0001530  49.7345  51.3069 15.16300330  1303,6895.170999999999,94.968,518.091,515.981,0.0
51988.0,STARLINK-3640,PAYLOAD,2022-05-14 04:00:00,15.159342,0.0001506999999999,53.2177,183.9308,48.9372,337.3549,-0.038167,-0.00691795,0.0,0 STARLINK-3640,1 51988U 22025AJ  22134.16667824 -.00691795  00000-0 -38167-1 0  9999,2 51988  53.2177 183.9308 0001507  48.9372 337.3549 15.15934200 11495,6896.281,94.991,519.185,517.107,0.0
51988.0,STARLINK-3640,PAYLOAD,2022-05-14 14:00:01,15.15320694,0.0001582,53.2175,182.0469,53.8964,87.0809,-0.038571,-0.00687295,0.0,0 STARLINK-3640,1 51988U 22025AJ  22134.58334491 -.00687295  00000-0 -38571-1 0  9995,2 51988  53.2175 182.0469 0001582  53.8964  87.0809 15.15320694  1309,6898.142,95.029,521.0980000000002,518.9159999999998,0.0
51988.0,STARLINK-3640,PAYLOAD,2022-05-14 22:00:00,15.14835069,0.0001633,53.2176,180.5379,49.6354,110.4297,-0.039362,-0.00691477,0.0,0 STARLINK-3640,1 51988U 22025AJ  22134.91667824 -.00691477  00000-0 -39362-1 0  9997,2 51988  53.2176 180.5379 0001633  49.6354 110.4297 15.14835069  1304,6899.616,95.06,522.6080000000002,520.355,0.0
51988.0,STARLINK-3640,PAYLOAD,2022-05-15 04:00:00,15.14469507,0.0001719,53.2178,179.4082,42.1572,41.8386,-0.039827,-0.00692367,0.0,0 STARLINK-3640,1 51988U 22025AJ  22135.16667824 -.00692367  00000-0 -39827-1 0  9990,2 51988  53.2178 179.4082 0001719  42.1572  41.8386 15.14469507 11643,6900.727,95.083,523.778,521.405,0.0
51988.0,STARLINK-3640,PAYLOAD,2022-05-15 14:00:01,15.13855899,0.0001541,53.2174,177.5284,59.9941,136.5497,-0.040189,-0.00686976,0.0,0 STARLINK-3640,1 51988U 22025AJ  22135.58335648 -.00686976  00000-0 -40189-1 0  9994,2 51988  53.2174 177.5284 0001541  59.9941 136.5497 15.13855899  1300,6902.590999999999,95.121,525.52,523.3919999999998,0.0
51988.0,STARLINK-3640,PAYLOAD,2022-05-15 22:00:00,15.13369975,0.0001624,53.2175,176.0228,52.4722,161.3364,-0.040982,-0.00690733,0.0,0 STARLINK-3640,1 51988U 22025AJ  22135.91667824 -.00690733  00000-0 -40982-1 0  9992,2 51988  53.2175 176.0228 0001624  52.4722 161.3364 15.13369975  1304,6904.069,95.152,527.055,524.812,0.0
51988.0,STARLINK-3640,PAYLOAD,2022-05-16 04:00:00,15.13004685,0.0001727,53.2178,174.8958,47.0274,89.3916,-0.041518,-0.00692491,0.0,0 STARLINK-3640,1 51988U 22025AJ  22136.16667824 -.00692491  00000-0 -41518-1 0  9999,2 51988  53.2178 174.8958 0001727  47.0274  89.3916 15.13004685 11801,6905.18,95.175,528.237,525.852,0.0
51988.0,STARLINK-3640,PAYLOAD,2022-05-16 14:00:01,15.12392286,0.0001509,53.2174,173.0202,61.8595,184.8437,-0.041986,-0.00688598,0.0,0 STARLINK-3640,1 51988U 22025AJ  22136.58334491 -.00688598  00000-0 -41986-1 0  9998,2 51988  53.2174 173.0202 0001509  61.8595 184.8437 15.12392286  1307,6907.044,95.213,529.951,527.866,0.0
51988.0,STARLINK-3640,PAYLOAD,2022-05-16 22:00:00,15.11904659,0.0001514,53.2175,171.5179,57.7026,204.5691,-0.042647,-0.00689863,0.0,0 STARLINK-3640,1 51988U 22025AJ  22136.91667824 -.00689863  00000-0 -42647-1 0  9995,2 51988  53.2175 171.5179 0001514  57.7026 204.5691 15.11904659  1307,6908.529,95.244,531.44,529.3480000000002,0.0
51988.0,STARLINK-3640,PAYLOAD,2022-05-17 04:00:00,15.11540339,0.0001751999999999,53.2178,170.3936,48.549,135.0125,-0.043303,-0.00693172,0.0,0 STARLINK-3640,1 51988U 22025AJ  22137.16667824 -.00693172  00000-0 -43303-1 0  9991,2 51988  53.2178 170.3936 0001752  48.5490 135.0125 15.11540339 11958,6909.639,95.267,532.714,530.293,0.0
51988.0,STARLINK-3640,PAYLOAD,2022-05-17 14:00:01,15.10929036,0.0001426999999999,53.2174,168.5221,62.1789,229.5292,-0.043907,-0.00691078,0.0,0 STARLINK-3640,1 51988U 22025AJ  22137.58335648 -.00691078  00000-0 -43907-1 0  9996,2 51988  53.2174 168.5221 0001427  62.1789 229.5292 15.10929036  1308,6911.502,95.306,534.354,532.381,0.0
51988.0,STARLINK-3640,PAYLOAD,2022-05-17 22:00:01,15.1043915,0.0001452,53.2175,167.0232,57.7956,247.7218,-0.044355,-0.00688847,0.0,0 STARLINK-3640,1 51988U 22025AJ  22137.91668981 -.00688847  00000-0 -44355-1 0  9990,2 51988  53.2175 167.0232 0001452  57.7956 247.7218 15.10439150  1302,6912.996999999999,95.337,535.866,533.8580000000002,0.0
51988.0,STARLINK-3640,PAYLOAD,2022-05-18 04:00:01,15.10074882,0.0001696,53.2177,165.9017,52.2019,173.2851,-0.045036,-0.00692186,0.0,0 STARLINK-3640,1 51988U 22025AJ  22138.16668981 -.00692186  00000-0 -45036-1 0  9996,2 51988  53.2177 165.9017 0001696  52.2019 173.2851 15.10074882 12105,6914.108,95.36,537.146,534.8009999999998,0.0
51988.0,STARLINK-3640,PAYLOAD,2022-05-18 14:00:01,15.09455977,0.0001369,53.2172,164.0331,64.0228,267.2869,-0.044411,-0.00672317,0.0,0 STARLINK-3640,1 51988U 22025AJ  22138.58334491 -.00672317  00000-0 -44411-1 0  9998,2 51988  53.2172 164.0331 0001369  64.0228 267.2869 15.09455977  1308,6915.998000000001,95.399,538.81,536.9159999999998,0.0
51988.0,STARLINK-3640,PAYLOAD,2022-05-18 20:00:01,15.08956111,0.0001561999999999,53.2175,162.9097,56.8488,193.5732,-0.011479,-0.0017904,0.0,0 STARLINK-3640,1 51988U 22025AJ  22138.83334491 -.00179040  00000-0 -11479-1 0  9999,2 51988  53.2175 162.9097 0001562  56.8488 193.5732 15.08956111 12205,6917.526,95.43,540.471,538.31,0.0
51988.0,STARLINK-3640,PAYLOAD,2022-05-18 22:00:00,15.08861308,0.0001485,53.2173,162.5355,59.7269,283.6439,-0.0024534,-0.00039145,0.0,0 STARLINK-3640,1 51988U 22025AJ  22138.91667824 -.00039145  00000-0 -24534-2 0  9995,2 51988  53.2173 162.5355 0001485  59.7269 283.6439 15.08861308  1306,6917.815,95.436,540.7080000000002,538.653,0.0
51988.0,STARLINK-3640,PAYLOAD,2022-05-19 04:00:00,15.08837338,0.0001699,53.2175,161.4141,50.9225,211.1533,-2.9265e-05,-7.54e-06,0.0,0 STARLINK-3640,1 51988U 22025AJ  22139.16667824 -.00000754  00000-0 -29265-4 0  9995,2 51988  53.2175 161.4141 0001699  50.9225 211.1533 15.08837338 12254,6917.889,95.438,540.929,538.578,0.0
51988.0,STARLINK-3640,PAYLOAD,2022-05-19 14:00:01,15.08863089,0.0001662,53.2151,159.5329,46.8727,319.8942,0.00045777,7.009e-05,0.0,0 STARLINK-3640,1 51988U 22025AJ  22139.58335648  .00007009  00000-0  45777-3 0  9990,2 51988  53.2151 159.5329 0001662  46.8727 319.8942 15.08863089  1301,6917.81,95.436,540.825,538.525,0.0
51988.0,STARLINK-3640,PAYLOAD,2022-05-19 20:00:01,15.08877748,0.0001602,53.2157,158.4092,53.4345,231.9809,-0.0077944,-0.00122363,0.0,0 STARLINK-3640,1 51988U 22025AJ  22139.83334491 -.00122363  00000-0 -77944-2 0  9996,2 51988  53.2157 158.4092 0001602  53.4345 231.9809 15.08877748 12356,6917.765,95.435,540.738,538.5219999999998,0.0
51988.0,STARLINK-3640,PAYLOAD,2022-05-19 22:00:00,15.08838257,0.0001601,53.2155,158.0347,55.4508,322.8784,-0.0052583,-0.00083007,0.0,0 STARLINK-3640,1 51988U 22025AJ  22139.91667824 -.00083007  00000-0 -52583-2 0  9997,2 51988  53.2155 158.0347 0001601  55.4508 322.8784 15.08838257  1302,6917.886,95.438,540.8580000000002,538.643,0.0
51988.0,STARLINK-3640,PAYLOAD,2022-05-20 12:00:00,15.08681849,0.0001823,53.216,155.4184,48.2739,260.2393,0.0093122,0.00150446,0.0,0 STARLINK-3640,1 51988U 22025AJ  22140.50001157  .00150446  00000-0  93122-2 0  9999,2 51988  53.2160 155.4184 0001823  48.2739 260.2393 15.08681849 12452,6918.364000000001,95.448,541.49,538.9680000000002,0.0
51988.0,STARLINK-3640,PAYLOAD,2022-05-20 14:00:01,15.08721737,0.0001776,53.2159,155.04399999999995,47.5988,353.766,0.0068197,0.00109585,0.0,0 STARLINK-3640,1 51988U 22025AJ  22140.58334491  .00109585  00000-0  68197-2 0  9999,2 51988  53.2159 155.0440 0001776  47.5988 353.7660 15.08721737  1304,6918.2419999999975,95.445,541.336,538.878,0.0
51988.0,STARLINK-3640,PAYLOAD,2022-05-20 22:00:00,15.08785908,0.0001524,53.2163,153.546,52.1272,0.7445,0.0071351,0.00114955,0.0,0 STARLINK-3640,1 51988U 22025AJ  22140.91667824  .00114955  00000-0  71351-2 0  9998,2 51988  53.2163 153.5460 0001524  52.1272   0.7445 15.08785908  1303,6918.045999999999,95.441,540.965,538.856,0.0
51988.0,STARLINK-3640,PAYLOAD,2022-05-21 04:00:00,15.08877071,0.0001573,53.2168,152.4247,49.6443,281.8986,-0.0014248,-0.00022915,0.0,0 STARLINK-3640,1 51988U 22025AJ  22141.16667824 -.00022915  00000-0 -14248-2 0  9994,2 51988  53.2168 152.4247 0001573  49.6443 281.8986 15.08877071 12558,6917.767,95.435,540.72,538.544,0.0
